OBJECT_NAME,OBJECT_ID,EPOCH,MEAN_MOTION,ECCENTRICITY,INCLINATION,RA_OF_ASC_NODE,ARG_OF_PERICENTER,MEAN_ANOMALY,EPHEMERIS_TYPE,CLASSIFICATION_TYPE,NORAD_CAT_ID,ELEMENT_SET_NO,REV_AT_EPOCH,BSTAR,MEAN_MOTION_DOT,MEAN_MOTION_DDOT
H-2A R/B,2006-002B,2026-07-22T21:45:26.121312,15.18539013,.00511777,98.2603,2.9875,140.0479,220.4537,0,U,28932,999,11494,.44563669E-3,.9446E-4,0
RESURS-DK 1,2006-021A,2026-07-22T07:59:27.691296,15.13337369,.00075242,69.9299,248.5646,263.4935,96.5374,0,U,29228,999,10789,.86164191E-4,.1431E-4,0
CZ-4B R/B,2006-046C,2026-07-22T14:05:28.046688,15.18023563,.00332838,97.5434,248.0858,156.8247,203.4496,0,U,29507,999,8050,.19830344E-3,.4021E-4,0
CZ-2C R/B,2007-010B,2026-07-22T18:39:17.034336,14.20283335,.00577768,98.4119,310.3919,261.2603,98.2028,0,U,31114,999,99889,.52114713E-4,.72E-6,0
COSMO-SKYMED 1,2007-023A,2026-07-22T22:59:13.968384,14.97252401,.00019358,97.8863,36.1174,93.5451,266.5991,0,U,31598,999,3514,.26540411E-3,.3014E-4,0
COSMOS 2428,2007-029A,2026-07-22T14:41:50.062272,14.12939754,.00073258,70.9381,280.0995,66.5360,293.6530,0,U,31792,999,98315,.20603094E-3,.336E-5,0
SL-16 R/B,2007-029B,2026-07-22T21:45:08.571744,14.14856678,.00019269,70.9740,248.1426,260.2520,277.1042,0,U,31793,999,98449,.18545059E-3,.31E-5,0
KORONAS-FOTON,2009-003A,2026-07-22T19:18:52.241184,15.46439727,.00114346,82.4304,135.0868,38.3487,321.8573,0,U,33504,999,96660,.27820192E-3,.1385E-3,0
CZ-2C R/B,2011-030B,2026-07-22T19:56:49.902432,14.81542223,.00506535,97.8673,158.5805,270.5993,118.7915,0,U,37731,999,81010,.91746546E-4,.68E-5,0
H-2A R/B,2012-025E,2026-07-22T21:05:13.071264,14.95857194,.00427609,98.4853,181.9756,228.9428,130.8093,0,U,38341,999,76842,.17820145E-3,.1957E-4,0
SHIJIAN-16 (SJ-16),2013-057A,2026-07-22T23:08:10.800960,14.92685546,.00154726,74.9732,288.9198,146.0443,214.1739,0,U,39358,999,69168,.10621277E-3,.1069E-4,0
SL-4 R/B,2014-021B,2026-07-22T19:56:25.373472,15.42597012,.00892795,51.6070,36.0660,236.6396,122.6021,0,U,39679,999,67711,.21759825E-3,.10673E-3,0
ALOS-2,2014-029A,2026-07-22T22:00:24.740928,14.79473003,.00016199,97.9224,300.5703,92.6159,267.5238,0,U,39766,999,65686,.17332325E-3,.1243E-4,0
YAOGAN-29,2015-069A,2026-07-23T00:04:21.789408,14.83109876,.00000958,98.0026,232.6902,96.5568,263.5656,0,U,41038,999,57593,.207298E-6,-.52E-6,0
ASTRO-H (HITOMI),2016-012A,2026-07-22T17:10:48.014400,15.10654026,.00097059,30.9973,204.7059,250.5060,109.4530,0,U,41337,999,57266,.10136073E-3,.1816E-4,0
HXMT (HUIYAN),2017-034A,2026-07-22T18:48:05.436000,15.18737052,.00312561,43.0151,344.7924,8.7119,351.4266,0,U,42758,999,50307,.25187028E-3,.5151E-4,0
SAOCOM 1A,2018-076A,2026-07-22T23:37:12.762336,14.82150214,.00014582,97.8897,30.2131,87.1323,273.0057,0,U,43641,999,42140,.12701451E-4,.49E-6,0
H-2A R/B,2018-084L,2026-07-22T22:11:08.455488,15.46427317,.00202344,98.8521,90.6551,271.3419,88.5508,0,U,43682,999,42664,.4681487E-3,.23276E-3,0
SAOCOM 1B,2020-059A,2026-07-22T22:44:56.125248,14.82148739,.00015305,97.8903,29.2740,88.0698,272.0690,0,U,46265,999,31878,.1249069E-3,.942E-5,0
CSS (TIANHE),2021-035A,2026-07-22T10:58:54.030720,15.58249100,.00011997,41.4671,107.8074,305.3687,54.7038,0,U,48274,999,29867,.13441968E-3,.10144E-3,0
COSMOS 2550,2021-056A,2026-07-22T22:53:14.466624,15.33886567,.00085588,67.1442,351.7132,269.2929,90.7244,0,U,48865,999,28420,.18487323E-3,.5906E-4,0
CZ-2C R/B,2022-058K,2026-07-22T15:46:39.088704,15.64318676,.00299391,50.1859,338.6055,53.7112,306.6622,0,U,52794,999,23119,.45019493E-3,.4467E-3,0
CZ-2C R/B,2022-132E,2026-07-21T23:58:34.411296,15.75655151,.00084345,97.2895,211.6874,308.6978,51.3532,0,U,54039,999,21142,.47195042E-3,.72457E-3,0
GSLV R/B,2022-138AN,2026-07-22T06:29:36.311424,14.97406953,.00226639,87.3816,121.2035,28.4355,331.8108,0,U,54149,999,20406,.16876788E-3,.2E-4,0
XRISM,2023-137A,2026-07-22T21:22:29.010720,15.12712178,.00078079,31.0018,128.2774,322.6668,37.3428,0,U,57800,999,15827,.2342933E-3,.4306E-4,0
ACS3,2024-077B,2026-07-22T17:04:27.009408,13.95712925,.01304059,97.1771,114.6405,27.7080,333.0957,0,U,59588,999,11299,.25472823E-1,.37424E-3,0
SPACEMOBILE-003,2024-163A,2026-07-22T20:05:24.333216,15.20672017,.00035496,52.9684,145.5029,221.4656,138.6069,0,U,61045,999,10319,.10549424E-3,.2021E-4,0
SPACEMOBILE-005,2024-163B,2026-07-22T21:16:16.497984,15.20620713,.0008389,52.9740,145.2334,216.1321,143.9107,0,U,61046,999,10319,.24525843E-3,.5127E-4,0
SPACEMOBILE-001,2024-163C,2026-07-22T13:20:36.041280,15.20677464,.00068236,52.9703,146.4575,216.1814,143.8720,0,U,61047,999,10314,.34042584E-4,.43E-5,0
SPACEMOBILE-002,2024-163D,2026-07-22T03:30:09.144288,15.20474992,.00044252,52.9760,148.3864,214.1604,145.9106,0,U,61048,999,10308,.10065253E-2,.22005E-3,0
