H-2A R/B                
1 28932U 06002B   26203.90655233  .00009446  00000+0  44564-3 0  9996
2 28932  98.2603   2.9875 0051177 140.0479 220.4537 15.18539013114949
RESURS-DK 1             
1 29228U 06021A   26203.33295939  .00001431  00000+0  86164-4 0  9995
2 29228  69.9299 248.5646 0007524 263.4935  96.5374 15.13337369107894
CZ-4B R/B               
1 29507U 06046C   26203.58713017  .00004021  00000+0  19830-3 0  9994
2 29507  97.5434 248.0858 0033283 156.8247 203.4496 15.18023563 80509
CZ-2C R/B               
1 31114U 07010B   26203.77728049  .00000072  00000+0  52115-4 0  9991
2 31114  98.4119 310.3919 0057776 261.2603  98.2028 14.20283335998895
COSMO-SKYMED 1          
1 31598U 07023A   26203.95780056  .00003014  00000+0  26540-3 0  9998
2 31598  97.8863  36.1174 0001935  93.5451 266.5991 14.97252401 35142
COSMOS 2428             
1 31792U 07029A   26203.61238498  .00000336  00000+0  20603-3 0  9999
2 31792  70.9381 280.0995 0007325  66.5360 293.6530 14.12939754983157
SL-16 R/B               
1 31793U 07029B   26203.90634921  .00000310  00000+0  18545-3 0  9997
2 31793  70.9740 248.1426 0001926 260.2520 277.1042 14.14856678984491
KORONAS-FOTON           
1 33504U 09003A   26203.80477131  .00013850  00000+0  27820-3 0  9999
2 33504  82.4304 135.0868 0011434  38.3487 321.8573 15.46439727966609
CZ-2C R/B               
1 37731U 11030B   26203.83113313  .00000680  00000+0  91747-4 0  9997
2 37731  97.8673 158.5805 0050653 270.5993 118.7915 14.81542223810103
H-2A R/B                
1 38341U 12025E   26203.87862351  .00001957  00000+0  17820-3 0  9994
2 38341  98.4853 181.9756 0042760 228.9428 130.8093 14.95857194768423
SHIJIAN-16 (SJ-16)      
1 39358U 13057A   26203.96401390  .00001069  00000+0  10621-3 0  9997
2 39358  74.9732 288.9198 0015472 146.0443 214.1739 14.92685546691685
SL-4 R/B                
1 39679U 14021B   26203.83084923  .00010673  00000+0  21760-3 0  9997
2 39679  51.6070  36.0660 0089279 236.6396 122.6021 15.42597012677118
ALOS-2                  
1 39766U 14029A   26203.91695302  .00001243  00000+0  17332-3 0  9993
2 39766  97.9224 300.5703 0001619  92.6159 267.5238 14.79473003656865
YAOGAN-29               
1 41038U 15069A   26204.00302997 -.00000052  00000+0  20730-6 0  9996
2 41038  98.0026 232.6902 0000095  96.5568 263.5656 14.83109876575939
ASTRO-H (HITOMI)        
1 41337U 16012A   26203.71583350  .00001816  00000+0  10136-3 0  9992
2 41337  30.9973 204.7059 0009705 250.5060 109.4530 15.10654026572665
HXMT (HUIYAN)           
1 42758U 17034A   26203.78339625  .00005151  00000+0  25187-3 0  9994
2 42758  43.0151 344.7924 0031256   8.7119 351.4266 15.18737052503079
SAOCOM 1A               
1 43641U 18076A   26203.98417549  .00000049  00000+0  12701-4 0  9997
2 43641  97.8897  30.2131 0001458  87.1323 273.0057 14.82150214421403
H-2A R/B                
1 43682U 18084L   26203.92440342  .00023276  00000+0  46815-3 0  9991
2 43682  98.8521  90.6551 0020234 271.3419  88.5508 15.46427317426648
SAOCOM 1B               
1 46265U 20059A   26203.94787182  .00000942  00000+0  12491-3 0  9992
2 46265  97.8903  29.2740 0001530  88.0698 272.0690 14.82148739318783
CSS (TIANHE)            
1 48274U 21035A   26203.45756980  .00010144  00000+0  13442-3 0  9999
2 48274  41.4671 107.8074 0001199 305.3687  54.7038 15.58249100298673
COSMOS 2550             
1 48865U 21056A   26203.95363966  .00005906  00000+0  18487-3 0  9995
2 48865  67.1442 351.7132 0008558 269.2929  90.7244 15.33886567284208
CZ-2C R/B               
1 52794U 22058K   26203.65739686  .00044670  00000+0  45019-3 0  9999
2 52794  50.1859 338.6055 0029939  53.7112 306.6622 15.64318676231196
CZ-2C R/B               
1 54039U 22132E   26202.99900939  .00072457  00000+0  47195-3 0  9994
2 54039  97.2895 211.6874 0008434 308.6978  51.3532 15.75655151211422
GSLV R/B                
1 54149U 22138AN  26203.27055916  .00002000  00000+0  16877-3 0  9990
2 54149  87.3816 121.2035 0022663  28.4355 331.8108 14.97406953204062
XRISM                   
1 57800U 23137A   26203.89061355  .00004306  00000+0  23429-3 0  9991
2 57800  31.0018 128.2774 0007807 322.6668  37.3428 15.12712178158276
ACS3                    
1 59588U 24077B   26203.71142372  .00037424  00000+0  25473-1 0  9996
2 59588  97.1771 114.6405 0130405  27.7080 333.0957 13.95712925112993
SPACEMOBILE-003         
1 61045U 24163A   26203.83708719  .00002021  00000+0  10549-3 0  9994
2 61045  52.9684 145.5029 0003549 221.4656 138.6069 15.20672017103193
SPACEMOBILE-005         
1 61046U 24163B   26203.88630206  .00005127  00000+0  24526-3 0  9995
2 61046  52.9740 145.2334 0008389 216.1321 143.9107 15.20620713103198
SPACEMOBILE-001         
1 61047U 24163C   26203.55597270  .00000430  00000+0  34043-4 0  9991
2 61047  52.9703 146.4575 0006823 216.1814 143.8720 15.20677464103146
SPACEMOBILE-002         
1 61048U 24163D   26203.14593917  .00022005  00000+0  10065-2 0  9999
2 61048  52.9760 148.3864 0004425 214.1604 145.9106 15.20474992103088
